OBJECT_NAME,OBJECT_ID,EPOCH,MEAN_MOTION,ECCENTRICITY,INCLINATION,RA_OF_ASC_NODE,ARG_OF_PERICENTER,MEAN_ANOMALY,EPHEMERIS_TYPE,CLASSIFICATION_TYPE,NORAD_CAT_ID,ELEMENT_SET_NO,REV_AT_EPOCH,BSTAR,MEAN_MOTION_DOT,MEAN_MOTION_DDOT
DMSP 5D-3 F16 (USA 172),2003-048A,2026-06-08T04:17:08.060064,14.14482417,.0007308,98.9892,182.9471,163.8776,244.5369,0,U,28054,999,16821,.3935E-4,.3E-6,0
METEOSAT-9 (MSG-2),2005-049B,2026-06-07T23:23:21.475104,1.00268603,.0001749,9.3397,54.2567,351.8629,246.7838,0,U,28912,999,690,0,.137E-5,0
DMSP 5D-3 F17 (USA 191),2006-050A,2026-06-08T04:32:40.304832,14.14991901,.0011324,98.7377,165.9435,82.4895,277.7565,0,U,29522,999,1115,.55433E-4,.64E-6,0
FENGYUN 3A,2008-026A,2026-06-08T02:18:06.535008,14.19569313,.0009205,98.6881,100.0993,147.7099,212.4642,0,U,32958,999,93411,.6135E-4,.86E-6,0
GOES 14,2009-033A,2026-06-07T15:09:03.163104,1.00114378,.0001995,1.6645,83.1599,3.5143,183.9218,0,U,35491,999,649,0,-.237E-5,0
DMSP 5D-3 F18 (USA 210),2009-057A,2026-06-08T03:50:35.353824,14.14891708,.0009878,98.9034,139.9491,278.3486,81.6567,0,U,35951,999,85831,.15085E-3,.247E-5,0
EWS-G2 (GOES 15),2010-008A,2026-06-08T03:33:38.729088,1.00275825,.0005488,1.2520,83.0108,37.9746,252.5669,0,U,36411,999,5954,0,.34E-6,0
COMS 1,2010-032A,2026-06-03T23:47:39.107040,1.00270643,.0001016,4.7750,75.5286,4.5847,297.3769,0,U,36744,999,5095,0,-.334E-5,0
FENGYUN 3B,2010-059A,2026-06-08T04:28:46.041600,14.14840711,.0021443,98.9621,205.1627,210.0429,239.4804,0,U,37214,999,80615,.16682E-3,.277E-5,0
SUOMI NPP,2011-061A,2026-06-08T02:33:53.007264,14.19515567,.0002025,98.7952,100.0451,26.7312,333.3968,0,U,37849,999,75715,.577E-4,.77E-6,0
METEOSAT-10 (MSG-3),2012-035B,2026-06-08T01:24:15.657120,1.00275787,.0001633,4.6491,61.0583,335.2386,241.4327,0,U,38552,999,5076,0,.1E-6,0
METOP-B,2012-049A,2026-06-08T04:18:31.260672,14.21430293,.0002754,98.6507,210.8581,40.5698,319.5684,0,U,38771,999,71198,.63772E-4,.96E-6,0
INSAT-3D,2013-038B,2026-06-07T22:35:51.001728,1.00274228,.0000827,1.9012,82.6620,320.2879,321.8554,0,U,39216,999,4698,0,-.323E-5,0
FENGYUN 3C,2013-052A,2026-06-08T05:01:51.244896,14.15753076,.0015648,98.4975,133.4969,52.1181,308.1407,0,U,39260,999,65729,.67838E-4,.92E-6,0
METEOR-M 2,2014-037A,2026-06-08T04:56:43.722240,14.21458677,.0007008,98.5114,135.2629,66.0686,294.1225,0,U,40069,999,61804,.68589E-4,.108E-5,0
HIMAWARI-8,2014-060A,2026-06-07T22:39:05.692032,1.00270864,.0000851,0.0228,57.4688,43.2318,276.0876,0,U,40267,999,4266,0,-.26E-5,0
FENGYUN 2G,2014-090A,2026-06-07T19:01:58.617120,1.00277410,.0003377,5.6148,72.9276,153.3297,55.0224,0,U,40367,999,4190,0,-.288E-5,0
METEOSAT-11 (MSG-4),2015-034A,2026-06-08T03:09:41.123808,1.00277499,.0001692,3.1797,71.1607,5.8565,236.3558,0,U,40732,999,712,0,.79E-6,0
ELEKTRO-L 2,2015-074A,2026-06-08T01:19:49.413792,1.00272046,.0001134,6.6705,70.6343,284.8984,266.3917,0,U,41105,999,3841,0,-.103E-5,0
SENTINEL-3A,2016-011A,2026-06-08T04:04:31.779264,14.26737516,.0001352,98.6249,226.6826,104.3433,255.7897,0,U,41335,999,53677,.59468E-4,.1E-5,0
INSAT-3DR,2016-054A,2026-06-08T01:45:28.622016,1.00270655,.0010385,0.0818,87.6483,186.7487,82.4339,0,U,41752,999,3572,0,-.61E-6,0
HIMAWARI-9,2016-064A,2026-06-07T22:39:05.692032,1.00273025,.0000882,0.0275,164.0399,311.6256,261.2219,0,U,41836,999,3511,0,-.259E-5,0
GOES 16,2016-071A,2026-06-08T02:37:09.187968,1.00270738,.0000466,0.3165,85.6192,315.5886,149.9183,0,U,41866,999,3501,0,-.75E-6,0
FENGYUN 4A,2016-077A,2026-06-08T00:16:55.748640,1.00274370,.0008239,2.2987,80.3819,151.4381,152.5907,0,U,41882,999,3483,0,-.341E-5,0
CYGFM05,2016-078A,2026-06-08T03:15:40.533120,15.56264978,.0006939,34.9577,320.5088,57.2733,302.8659,0,U,41884,999,52734,.29099E-3,.21149E-3,0
CYGFM04,2016-078B,2026-06-08T01:41:23.049888,15.61001382,.000596,34.9327,289.0859,104.2371,255.9016,0,U,41885,999,52757,.34874E-3,.30386E-3,0
CYGFM02,2016-078C,2026-06-07T18:27:34.751808,15.63886780,.0006939,34.9410,285.9023,102.1457,258.0047,0,U,41886,999,52769,.35547E-3,.34711E-3,0
CYGFM01,2016-078D,2026-06-07T20:55:43.384224,15.56917446,.0006911,34.9407,323.3879,47.7074,312.4235,0,U,41887,999,52725,.33868E-3,.25246E-3,0
CYGFM08,2016-078E,2026-06-07T17:15:47.081952,15.59518568,.0007839,34.9437,304.2251,81.2519,278.9093,0,U,41888,999,52749,.36036E-3,.29673E-3,0
CYGFM07,2016-078G,2026-06-07T16:17:49.113888,15.59620789,.0006346,34.9451,292.8440,98.7772,261.3672,0,U,41890,999,52751,.3598E-3,.29729E-3,0
CYGFM03,2016-078H,2026-06-07T18:40:20.380224,15.59618754,.0005908,34.9404,294.1248,86.1053,274.0347,0,U,41891,999,52750,.33072E-3,.27308E-3,0
